ONEWEB-0558             
1 56059U 23043P   24255.87174981 -.00001816  00000+0 -44282-2 0  9999
2 56059  87.9356  12.0696 0002075 113.4471 246.6882 13.21835243 73259
ONEWEB-0559             
1 56060U 23043Q   24255.86072913  .00000082  00000+0  16721-3 0  9992
2 56060  87.9356  12.0683 0001552 118.0709 242.0582 13.21823533 73268
ONEWEB-0566             
1 56061U 23043R   24255.85443143  .00000009  00000+0 -91358-5 0  9990
2 56061  87.9355  12.0698 0002123 118.3518 241.7830 13.21825582 73246
ONEWEB-0568             
1 56062U 23043S   24255.84867627 -.00000073  00000+0 -22363-3 0  9997
2 56062  87.9171 356.8778 0001956  92.7504 267.3850 13.16592962 74327
ONEWEB-0574             
1 56063U 23043T   24255.84812146  .00000056  00000+0  10303-3 0  9994
2 56063  87.9354  12.0640 0001995 100.0098 260.1261 13.21825289 73282
ONEWEB-0575             
1 56064U 23043U   24255.84232706 -.00000066  00000+0 -20552-3 0  9993
2 56064  87.9175 356.8889 0001497  86.3621 273.7681 13.16591617 74313
ONEWEB-0576             
1 56065U 23043V   24256.58331260  .00000240  00000+0  59362-3 0  9994
2 56065  87.9171 356.7378 0001848  89.0233 271.1109 13.16595045 75318
ONEWEB-0577             
1 56066U 23043W   24256.20964634  .00000129  00000+0  30393-3 0  9990
2 56066  87.9173 356.8113 0001311  81.1517 278.9763 13.16593217 75299
